ONEWEB-0326             
1 49195U 21083K   22262.46467574 -.00000025  00000+0 -96173-4 0  9997
2 49195  87.9116 246.9517 0002180 106.0949 254.0423 13.18686787 49879
ONEWEB-0327             
1 49196U 21083L   22262.44919345  .00000112  00000+0  25092-3 0  9990
2 49196  87.9117 246.9372 0002270 102.2121 257.9266 13.18689053 49898
ONEWEB-0328             
1 49197U 21083M   22262.44355088  .00000478  00000+0  12728-2 0  9995
2 49197  87.8983 231.7289 0001860  87.4459 272.6883 13.13472794 51484
ONEWEB-0331             
1 49198U 21083N   22262.46004441  .00000276  00000+0  66753-3 0  9996
2 49198  87.9118 246.9781 0002005  97.7623 262.3737 13.18685847 49885
ONEWEB-0333             
1 49199U 21083P   22262.43828514  .00000335  00000+0  88136-3 0  9994
2 49199  87.8981 231.7290 0002021  74.8573 285.2779 13.13471887 51490
ONEWEB-0334             
1 49200U 21083Q   22262.58334491  .00007241  00000+0  74092-3 0  9998
2 49200  87.2094 197.0477 0003403  37.3234 301.7233 14.90406423  1300
ONEWEB-0335             
1 49201U 21083R   22262.43404705  .00000380  00000+0  10044-2 0  9992
2 49201  87.8971 231.7241 0001794  90.4642 269.6693 13.13471976 51508
ONEWEB-0336             
1 49202U 21083S   22262.47847416 -.00000394  00000+0 -11149-2 0  9991
2 49202  87.8981 231.7166 0002075  77.3510 282.7851 13.13468463 51506
ONEWEB-0337             
1 49203U 21083T   22262.42558361  .00000084  00000+0  19487-3 0  9993
2 49203  87.8975 231.7283 0001783  87.6833 272.4500 13.13468319 51492
ONEWEB-0338             
1 49204U 21083U   22262.58334491  .00003310  00000+0  33713-3 0  9990
2 49204  87.2153 197.3250 0004445  55.7890 190.3318 14.90423823  1300
ONEWEB-0339             
1 49205U 21083V   22262.42135479 -.00000104  00000+0 -31997-3 0  9991
2 49205  87.8983 231.7286 0001597  73.9935 286.1370 13.13468111 51475
ONEWEB-0340             
1 49206U 21083W   22262.44764160  .00000032  00000+0  49451-4 0  9992
2 49206  87.9116 246.9697 0001867  90.2141 269.9205 13.18687674 49846
ONEWEB-0341             
1 49207U 21083X   22262.45537786  .00000104  00000+0  23092-3 0  9998
2 49207  87.9123 246.9010 0000848  96.5896 263.5332 13.18683101 49862
ONEWEB-0342             
1 49208U 21083Y   22262.58334491  .00005835  00000+0  59611-3 0  9993
2 49208  87.2116 197.1429 0004413  58.3901 359.8457 14.90434938  1301
ONEWEB-0343             
1 49209U 21083Z   22262.45229108  .00000101  00000+0  22457-3 0  9997
2 49209  87.9117 246.9386 0000754  53.6531 306.4671 13.18687213 49916
ONEWEB-0344             
1 49210U 21083AA  22262.38961461  .00000105  00000+0  25348-3 0  9992
2 49210  87.8983 231.7388 0002045  86.0798 274.0565 13.13470480 51479
ONEWEB-0345             
1 49211U 21083AB  22262.48375320 -.00000252  00000+0 -72415-3 0  9999
2 49211  87.8969 231.7054 0001650 105.9832 254.1479 13.13467954 52796
ONEWEB-0346             
1 49212U 21083AC  22262.45849283  .00000151  00000+0  35093-3 0  9998
2 49212  87.9116 246.9284 0002120 102.4396 257.6973 13.18684598 49855
ONEWEB-0348             
1 49213U 21083AD  22262.58334491  .00006544  00000+0  66894-3 0  9998
2 49213  87.2141 197.2599 0003878  46.9076 326.4496 14.90429001  1302
ONEWEB-0350             
1 49214U 21083AE  22262.41711775 -.00000102  00000+0 -31423-3 0  9991
2 49214  87.8977 231.7443 0001743  96.4530 263.6798 13.13468807 51518
ONEWEB-0351             
1 49215U 21083AF  22262.58334491  .00004799  00000+0  49012-3 0  9993
2 49215  87.2072 196.9491 0003248  43.1448  89.9745 14.90416218  1301
ONEWEB-0352             
1 49216U 21083AG  22262.47424736 -.00000178  00000+0 -52148-3 0  9997
2 49216  87.8980 231.7166 0002039  73.1496 286.9857 13.13471086 51616
ONEWEB-0354             
1 49217U 21083AH  22262.58334491  .00006428  00000+0  65712-3 0  9991
2 49217  87.2126 197.1767 0003343  64.2527 326.2940 14.90425801  1302
ONEWEB-0355             
1 49218U 21083AJ  22262.42981206  .00000187  00000+0  47688-3 0  9995
2 49218  87.8984 231.7305 0001636  77.9325 282.1987 13.13472284 51480
ONEWEB-0357             
1 49219U 21083AK  22262.58334491  .00006945  00000+0  71004-3 0  9998
2 49219  87.2121 197.1653 0004708  54.7841 276.5285 14.90432871  1306
ONEWEB-0332             
1 49279U 21090A   22262.58334491 -.00004845  00000+0 -13109-1 0  9991
2 49279  87.9109 201.3864 0002194  60.7944 212.0982 13.14500161  1307
ONEWEB-0347             
1 49280U 21090B   22262.58334491  .00010809  00000+0  40460-2 0  9999
2 49280  87.6993 191.7131 0003016 142.8961  24.2261 14.31672974  1306
ONEWEB-0349             
1 49281U 21090C   22262.58334491  .00017475  00000+0  42876-1 0  9998
2 49281  87.9227 186.3620 0001706  89.3079 284.6525 13.20755366  1301
ONEWEB-0353             
1 49282U 21090D   22262.58334491 -.00004565  00000+0 -12355-1 0  9996
2 49282  87.9061 201.4192 0002368  67.5614 245.3319 13.14501912  1303
ONEWEB-0356             
1 49283U 21090E   22262.58334491  .00017886  00000+0  43881-1 0  9993
2 49283  87.9278 186.3415 0002705  97.2476 286.7910 13.20756289  1306
ONEWEB-0358             
1 49284U 21090F   22262.58334491  .00000013  00000+0  00000+0 0  9992
2 49284  87.9536 186.2374 0001164 134.2931 106.0482 13.26704212  1306
ONEWEB-0359             
1 49285U 21090G   22262.58334491  .00016585  00000+0  40622-1 0  9990
2 49285  87.9314 186.2756 0000837  69.6731 203.9199 13.20876199  1300
ONEWEB-0360             
1 49286U 21090H   22262.58334491  .00016177  00000+0  39691-1 0  9992
2 49286  87.9309 186.2883 0001992  79.6545 234.2931 13.20760604  1307
ONEWEB-0361             
1 49287U 21090J   22262.58334491  .00018310  00000+0  44919-1 0  9993
2 49287  87.9284 186.3235 0002034  79.1729 314.9541 13.20759075  1302
ONEWEB-0362             
1 49288U 21090K   22262.58334491 -.00026472  00000+0 -66339-1 0  9994
2 49288  87.9264 216.5080 0002452  76.1643 294.0034 13.19734183  1307
ONEWEB-0363             
1 49289U 21090L   22262.58334491  .00016211  00000+0  39777-1 0  9999
2 49289  87.9281 186.3225 0002131  87.0343 237.0622 13.20755094  1300
ONEWEB-0364             
1 49290U 21090M   22262.58334491  .00010795  00000+0  43542-2 0  9998
2 49290  87.6932 191.9489 0002899 115.4003 118.6819 14.27866050  1301
ONEWEB-0365             
1 49291U 21090N   22262.58334491 -.00027100  00000+0 -67918-1 0  9991
2 49291  87.9179 216.5886 0001921  79.7821 261.0462 13.19733749  1303
ONEWEB-0366             
1 49292U 21090P   22262.58334491 -.00004563  00000+0 -12347-1 0  9996
2 49292  87.9059 201.4049 0002411  74.0140 258.8874 13.14503216  1302
ONEWEB-0367             
1 49293U 21090Q   22262.58334491  .00016302  00000+0  39998-1 0  9990
2 49293  87.9254 186.3650 0002187  73.0521 260.9355 13.20757681  1303
ONEWEB-0368             
1 49294U 21090R   22262.58334491  .00014147  00000+0  57115-2 0  9998
2 49294  87.6957 191.9375 0001655 156.4659 194.3976 14.27815531  1300
ONEWEB-0369             
1 49295U 21090S   22262.58334491 -.00026780  00000+0 -67114-1 0  9996
2 49295  87.9211 216.5583 0002340  76.2496 279.1462 13.19733774  1302
ONEWEB-0370             
1 49296U 21090T   22262.58334491  .00016112  00000+0  39534-1 0  9998
2 49296  87.9298 186.3258 0002158  77.8397 226.1049 13.20757643  1301
ONEWEB-0371             
1 49297U 21090U   22262.58334491 -.00027315  00000+0 -68454-1 0  9991
2 49297  87.9261 216.4904 0002032  82.4658 243.5671 13.19737988  1300
ONEWEB-0372             
1 49298U 21090V   22262.58334491  .00016567  00000+0  40647-1 0  9991
2 49298  87.9290 186.3232 0002511  71.8519 272.1073 13.20758626  1300
ONEWEB-0373             
1 49299U 21090W   22262.58334491  .00015050  00000+0  56327-2 0  9991
2 49299  87.6955 191.6347 0003137 212.2161 165.8605 14.31672851  1308
ONEWEB-0374             
1 49300U 21090X   22262.58334491 -.00005087  00000+0 -13652-1 0  9998
2 49300  87.9126 201.4175 0002321  75.8573 305.0566 13.15061134  1308
ONEWEB-0375             
1 49301U 21090Y   22262.58334491  .00015609  00000+0  38280-1 0  9992
2 49301  87.9340 186.2576 0002124 119.2089 165.5259 13.20791486  1302
ONEWEB-0376             
1 49302U 21090Z   22262.58334491 -.00027242  00000+0 -68273-1 0  9996
2 49302  87.9204 216.5682 0002204  73.0832 260.3018 13.19734596  1303
ONEWEB-0377             
1 49303U 21090AA  22262.58334491  .00000013  00000+0  00000+0 0  9994
2 49303  87.9322 186.2693 0000451  94.0981 198.6824 13.22452164  1300
ONEWEB-0378             
1 49304U 21090AB  22262.58334491  .00020052  00000+0  49189-1 0  9993
2 49304  87.9398 186.3711 0002259  75.1611   8.8028 13.20755709  1301
ONEWEB-0379             
1 49305U 21090AC  22262.58334491 -.00005667  00000+0 -15331-1 0  9993
2 49305  87.9088 201.4011 0002231  74.6246 348.2723 13.14501418  1300
ONEWEB-0380             
1 49306U 21090AD  22262.58334491 -.00026934  00000+0 -67500-1 0  9999
2 49306  87.9202 216.5746 0001850  82.2925 265.8782 13.19734420  1301
ONEWEB-0381             
1 49307U 21090AE  22262.58334491  .00016807  00000+0  41235-1 0  9993
2 49307  87.9294 186.3452 0002146  81.3618 272.6376 13.20759671  1301
ONEWEB-0382             
1 49308U 21090AF  22262.58334491  .00018698  00000+0  45873-1 0  9996
2 49308  87.9288 186.3315 0002273  90.1046 313.8722 13.20754600  1307
ONEWEB-0383             
1 49309U 21090AG  22262.58334491 -.00005923  00000+0 -16021-1 0  9999
2 49309  87.9123 201.3425 0002351  78.2434  14.3346 13.14498664  1304
ONEWEB-0384             
1 49310U 21090AH  22262.58334491  .00019083  00000+0  46818-1 0  9998
2 49310  87.9268 186.3440 0002484  98.4325 315.6039 13.20751841  1307
ONEWEB-0385             
1 49311U 21090AJ  22262.58334491  .00019830  00000+0  48647-1 0  9991
2 49311  87.9294 186.3237 0002366  86.1986 347.8717 13.20752488  1305
ONEWEB-0386             
1 49312U 21090AK  22262.58334491  .00017139  00000+0  42052-1 0  9996
2 49312  87.9253 186.3394 0002535  82.4293 281.4952 13.20754434  1300
